ORBCOMM FM103 [+]       
1 40091U 14040F   23359.56101830  .00001293  00000+0  32760-3 0  9994
2 40091  47.0067  42.0744 0002565 307.9019  52.1633 14.56160799485407
ORBCOMM FM114 [+]       
1 41179U 15081A   23359.25257552  .00001793  00000+0  43940-3 0  9994
2 41179  47.0037 312.8579 0001883   4.0212 356.0687 14.56189174425720
ORBCOMM FM119 [-]       
1 41180U 15081B   23358.74044612  .00001072  00000+0  27807-3 0  9994
2 41180  46.9994 224.4607 0001150  98.7563 261.3452 14.56151140426909
ORBCOMM FM105 [-]       
1 41181U 15081C   23358.59977660  .00000512  00000+0  19343-3 0  9990
2 41181  46.9997 179.5328 0001354  56.3323 303.7686 14.44154176422582
ORBCOMM FM110 [+]       
1 41182U 15081D   23359.22950193  .00001954  00000+0  47544-3 0  9999
2 41182  47.0028 312.3847 0001878 245.9577 114.1111 14.56196752425591
ORBCOMM FM118 [+]       
1 41183U 15081E   23359.27541979  .00001941  00000+0  47245-3 0  9997
2 41183  47.0045 312.4481 0001980 238.4254 121.6438 14.56192127425709
ORBCOMM FM112 [+]       
1 41184U 15081F   23358.99280962  .00001342  00000+0  33838-3 0  9996
2 41184  46.9982 222.5163 0001056  79.3519 280.7484 14.56168523426887
ORBCOMM FM113 [+]       
1 41185U 15081G   23358.76381636  .00001286  00000+0  32608-3 0  9993
2 41185  46.9992 223.8363 0000852 110.2698 249.8279 14.56148751426835
